[{"OBJECT_NAME":"SHIYAN-1 (SY-1)","OBJECT_ID":"2004-012A","EPOCH":"2026-03-09T17:40:34.066560","MEAN_MOTION":15.31043463,"ECCENTRICITY":0.00058726,"INCLINATION":97.8764,"RA_OF_ASC_NODE":140.5238,"ARG_OF_PERICENTER":23.6952,"MEAN_ANOMALY":336.4557,"EPHEMERIS_TYPE":0,"CLASSIFICATION_TYPE":"U","NORAD_CAT_ID":28220,"ELEMENT_SET_NO":999,"REV_AT_EPOCH":19586,"BSTAR":0.00054854449,"MEAN_MOTION_DOT":0.00016393,"MEAN_MOTION_DDOT":0},{"OBJECT_NAME":"STARLINK-31073","OBJECT_ID":"2024-011J","EPOCH":"2026-03-09T23:30:04.766112","MEAN_MOTION":15.30197119,"ECCENTRICITY":0.00014483,"INCLINATION":53.1616,"RA_OF_ASC_NODE":12.3967,"ARG_OF_PERICENTER":99.5145,"MEAN_ANOMALY":260.602,"EPHEMERIS_TYPE":0,"CLASSIFICATION_TYPE":"U","NORAD_CAT_ID":58773,"ELEMENT_SET_NO":999,"REV_AT_EPOCH":12031,"BSTAR":4.4686768e-5,"MEAN_MOTION_DOT":9.64e-6,"MEAN_MOTION_DDOT":0}]
